[{"OBJECT_NAME":"ASRTU-1 (AO-123)","OBJECT_ID":"2024-199AY","EPOCH":"2026-03-09T22:36:42.151392","MEAN_MOTION":15.34070057,"ECCENTRICITY":0.0012786,"INCLINATION":97.3152,"RA_OF_ASC_NODE":298.5256,"ARG_OF_PERICENTER":309.3392,"MEAN_ANOMALY":50.6717,"EPHEMERIS_TYPE":0,"CLASSIFICATION_TYPE":"U","NORAD_CAT_ID":61781,"ELEMENT_SET_NO":999,"REV_AT_EPOCH":11870,"BSTAR":0.00032267684,"MEAN_MOTION_DOT":0.00010589,"MEAN_MOTION_DDOT":0},{"OBJECT_NAME":"STARLINK-35398","OBJECT_ID":"2025-232N","EPOCH":"2026-03-09T11:44:21.782400","MEAN_MOTION":15.30188307,"ECCENTRICITY":0.00015605,"INCLINATION":53.1598,"RA_OF_ASC_NODE":104.9292,"ARG_OF_PERICENTER":69.6563,"MEAN_ANOMALY":290.4605,"EPHEMERIS_TYPE":0,"CLASSIFICATION_TYPE":"U","NORAD_CAT_ID":66017,"ELEMENT_SET_NO":999,"REV_AT_EPOCH":2340,"BSTAR":0.00098897436,"MEAN_MOTION_DOT":0.00029035,"MEAN_MOTION_DDOT":0}]
